[{"OBJECT_NAME":"HAWK-2A","OBJECT_ID":"2021-006CW","EPOCH":"2026-03-09T16:18:25.817472","MEAN_MOTION":15.33304498,"ECCENTRICITY":0.00064498,"INCLINATION":97.2459,"RA_OF_ASC_NODE":115.6184,"ARG_OF_PERICENTER":187.1463,"MEAN_ANOMALY":172.9689,"EPHEMERIS_TYPE":0,"CLASSIFICATION_TYPE":"U","NORAD_CAT_ID":47505,"ELEMENT_SET_NO":999,"REV_AT_EPOCH":28424,"BSTAR":0.0002543136,"MEAN_MOTION_DOT":8.113e-5,"MEAN_MOTION_DDOT":0},{"OBJECT_NAME":"STARLINK-31773","OBJECT_ID":"2024-065J","EPOCH":"2026-03-09T21:22:59.562624","MEAN_MOTION":15.30190191,"ECCENTRICITY":0.00011563,"INCLINATION":53.1598,"RA_OF_ASC_NODE":282.6283,"ARG_OF_PERICENTER":105.9677,"MEAN_ANOMALY":254.1451,"EPHEMERIS_TYPE":0,"CLASSIFICATION_TYPE":"U","NORAD_CAT_ID":59429,"ELEMENT_SET_NO":999,"REV_AT_EPOCH":10893,"BSTAR":3.5566552e-5,"MEAN_MOTION_DOT":6.94e-6,"MEAN_MOTION_DDOT":0}]
